{
  "type": "FeatureCollection",
  "features": [
    {
      "type": "Feature",
      "properties": {
        "norad_id": 34389,
        "name": "COSMOS 2251 DEB",
        "group": "cosmos-2251-debris",
        "lat": 45.19365217086532,
        "lon": -87.0771366540844,
        "alt_km": 733.2547372422141,
        "timestamp": "2025-12-09T07:41:33.605838+00:00",
        "meta_object_name": "COSMOS 2251 DEB",
        "meta_object_id": "1993-036QE",
        "meta_epoch": "2025-12-08T21:50:31.375968",
        "meta_mean_motion": 14.41517141,
        "meta_eccentricity": 0.00287254,
        "meta_inclination": 74.0195,
        "meta_ra_of_asc_node": 256.915,
        "meta_arg_of_pericenter": 9.685,
        "meta_mean_anomaly": 68.6301,
        "meta_ephemeris_type": 0,
        "meta_classification_type": "U",
        "meta_norad_cat_id": 34389,
        "meta_element_set_no": 999,
        "meta_rev_at_epoch": 87957,
        "meta_bstar": 0.00057705261,
        "meta_mean_motion_dot": 1.857e-05,
        "meta_mean_motion_ddot": 0,
        "tle_line1": "1 34389U 93036QE  25342.91008537  .00001857  00000+0  57705-3 0  9994",
        "tle_line2": "2 34389  74.0195 256.9150 0028725   9.6850  68.6301 14.41517141879574"
      },
      "geometry": {
        "type": "Point",
        "coordinates": [
          -87.0771366540844,
          45.19365217086532
        ]
      }
    },
    {
      "type": "Feature",
      "properties": {
        "norad_id": 34396,
        "name": "COSMOS 2251 DEB",
        "group": "cosmos-2251-debris",
        "lat": -65.99528441554651,
        "lon": 90.68760917661061,
        "alt_km": 656.4263815760896,
        "timestamp": "2025-12-09T07:41:33.605849+00:00",
        "meta_object_name": "COSMOS 2251 DEB",
        "meta_object_id": "1993-036QM",
        "meta_epoch": "2025-12-08T21:10:40.073664",
        "meta_mean_motion": 14.74240949,
        "meta_eccentricity": 0.00066113,
        "meta_inclination": 74.0291,
        "meta_ra_of_asc_node": 131.5657,
        "meta_arg_of_pericenter": 173.1693,
        "meta_mean_anomaly": 310.6919,
        "meta_ephemeris_type": 0,
        "meta_classification_type": "U",
        "meta_norad_cat_id": 34396,
        "meta_element_set_no": 999,
        "meta_rev_at_epoch": 88289,
        "meta_bstar": 0.002735551,
        "meta_mean_motion_dot": 0.00018107,
        "meta_mean_motion_ddot": 0,
        "tle_line1": "1 34396U 93036QM  25342.88240826  .00018107  00000+0  27356-2 0  9991",
        "tle_line2": "2 34396  74.0291 131.5657 0006611 173.1693 310.6919 14.74240949882890"
      },
      "geometry": {
        "type": "Point",
        "coordinates": [
          90.68760917661061,
          -65.99528441554651
        ]
      }
    },
    {
      "type": "Feature",
      "properties": {
        "norad_id": 34400,
        "name": "COSMOS 2251 DEB",
        "group": "cosmos-2251-debris",
        "lat": 30.147852571847665,
        "lon": 40.5383983899422,
        "alt_km": 413.0849686381107,
        "timestamp": "2025-12-09T07:41:33.605859+00:00",
        "meta_object_name": "COSMOS 2251 DEB",
        "meta_object_id": "1993-036QR",
        "meta_epoch": "2025-12-08T12:59:00.267648",
        "meta_mean_motion": 15.51081243,
        "meta_eccentricity": 0.0006239,
        "meta_inclination": 73.9666,
        "meta_ra_of_asc_node": 32.6433,
        "meta_arg_of_pericenter": 269.9683,
        "meta_mean_anomaly": 90.0815,
        "meta_ephemeris_type": 0,
        "meta_classification_type": "U",
        "meta_norad_cat_id": 34400,
        "meta_element_set_no": 999,
        "meta_rev_at_epoch": 89909,
        "meta_bstar": 0.0037967,
        "meta_mean_motion_dot": 0.00227844,
        "meta_mean_motion_ddot": 0,
        "tle_line1": "1 34400U 93036QR  25342.54097532  .00227844  00000+0  37967-2 0  9993",
        "tle_line2": "2 34400  73.9666  32.6433 0006239 269.9683  90.0815 15.51081243899092"
      },
      "geometry": {
        "type": "Point",
        "coordinates": [
          40.5383983899422,
          30.147852571847665
        ]
      }
    },
    {
      "type": "Feature",
      "properties": {
        "norad_id": 34409,
        "name": "COSMOS 2251 DEB",
        "group": "cosmos-2251-debris",
        "lat": 18.570814025428298,
        "lon": -41.15922721537459,
        "alt_km": 643.8489996888648,
        "timestamp": "2025-12-09T07:41:33.605869+00:00",
        "meta_object_name": "COSMOS 2251 DEB",
        "meta_object_id": "1993-036RA",
        "meta_epoch": "2025-12-08T23:37:31.219104",
        "meta_mean_motion": 14.58011679,
        "meta_eccentricity": 0.00796658,
        "meta_inclination": 74.0629,
        "meta_ra_of_asc_node": 313.9699,
        "meta_arg_of_pericenter": 29.3079,
        "meta_mean_anomaly": 26.6715,
        "meta_ephemeris_type": 0,
        "meta_classification_type": "U",
        "meta_norad_cat_id": 34409,
        "meta_element_set_no": 999,
        "meta_rev_at_epoch": 89138,
        "meta_bstar": 0.00038881271,
        "meta_mean_motion_dot": 1.836e-05,
        "meta_mean_motion_ddot": 0,
        "tle_line1": "1 34409U 93036RA  25342.98438911  .00001836  00000+0  38881-3 0  9998",
        "tle_line2": "2 34409  74.0629 313.9699 0079665  29.3079  26.6715 14.58011679891381"
      },
      "geometry": {
        "type": "Point",
        "coordinates": [
          -41.15922721537459,
          18.570814025428298
        ]
      }
    },
    {
      "type": "Feature",
      "properties": {
        "norad_id": 34410,
        "name": "COSMOS 2251 DEB",
        "group": "cosmos-2251-debris",
        "lat": 30.352694986444174,
        "lon": -81.13464828674887,
        "alt_km": 506.04199247310953,
        "timestamp": "2025-12-09T07:41:33.605880+00:00",
        "meta_object_name": "COSMOS 2251 DEB",
        "meta_object_id": "1993-036RB",
        "meta_epoch": "2025-12-08T19:02:13.915104",
        "meta_mean_motion": 15.18330254,
        "meta_eccentricity": 0.00209567,
        "meta_inclination": 73.739,
        "meta_ra_of_asc_node": 270.1458,
        "meta_arg_of_pericenter": 112.3147,
        "meta_mean_anomaly": 278.6546,
        "meta_ephemeris_type": 0,
        "meta_classification_type": "U",
        "meta_norad_cat_id": 34410,
        "meta_element_set_no": 999,
        "meta_rev_at_epoch": 89714,
        "meta_bstar": 0.0033403576,
        "meta_mean_motion_dot": 0.00069601,
        "meta_mean_motion_ddot": 0,
        "tle_line1": "1 34410U 93036RB  25342.79321661  .00069601  00000+0  33404-2 0  9991",
        "tle_line2": "2 34410  73.7390 270.1458 0020956 112.3147 278.6546 15.18330254897140"
      },
      "geometry": {
        "type": "Point",
        "coordinates": [
          -81.13464828674887,
          30.352694986444174
        ]
      }
    },
    {
      "type": "Feature",
      "properties": {
        "norad_id": 34412,
        "name": "COSMOS 2251 DEB",
        "group": "cosmos-2251-debris",
        "lat": 1.4167006702504323,
        "lon": -28.55252419223677,
        "alt_km": 680.1016351307044,
        "timestamp": "2025-12-09T07:41:33.605891+00:00",
        "meta_object_name": "COSMOS 2251 DEB",
        "meta_object_id": "1993-036RD",
        "meta_epoch": "2025-12-08T23:23:24.223488",
        "meta_mean_motion": 14.47068319,
        "meta_eccentricity": 0.01871021,
        "meta_inclination": 73.9489,
        "meta_ra_of_asc_node": 331.6897,
        "meta_arg_of_pericenter": 67.6677,
        "meta_mean_anomaly": 294.4194,
        "meta_ephemeris_type": 0,
        "meta_classification_type": "U",
        "meta_norad_cat_id": 34412,
        "meta_element_set_no": 999,
        "meta_rev_at_epoch": 87596,
        "meta_bstar": 0.0012473528,
        "meta_mean_motion_dot": 5.633e-05,
        "meta_mean_motion_ddot": 0,
        "tle_line1": "1 34412U 93036RD  25342.97458592  .00005633  00000+0  12474-2 0  9996",
        "tle_line2": "2 34412  73.9489 331.6897 0187102  67.6677 294.4194 14.47068319875962"
      },
      "geometry": {
        "type": "Point",
        "coordinates": [
          -28.55252419223677,
          1.4167006702504323
        ]
      }
    },
    {
      "type": "Feature",
      "properties": {
        "norad_id": 34413,
        "name": "COSMOS 2251 DEB",
        "group": "cosmos-2251-debris",
        "lat": -2.799714299450906,
        "lon": -89.71425628349456,
        "alt_km": 733.47273533314,
        "timestamp": "2025-12-09T07:41:33.605901+00:00",
        "meta_object_name": "COSMOS 2251 DEB",
        "meta_object_id": "1993-036RE",
        "meta_epoch": "2025-12-08T21:55:34.498272",
        "meta_mean_motion": 14.29048679,
        "meta_eccentricity": 0.00908541,
        "meta_inclination": 74.0318,
        "meta_ra_of_asc_node": 271.8267,
        "meta_arg_of_pericenter": 349.0092,
        "meta_mean_anomaly": 75.3617,
        "meta_ephemeris_type": 0,
        "meta_classification_type": "U",
        "meta_norad_cat_id": 34413,
        "meta_element_set_no": 999,
        "meta_rev_at_epoch": 87076,
        "meta_bstar": 0.0021508135,
        "meta_mean_motion_dot": 5.672e-05,
        "meta_mean_motion_ddot": 0,
        "tle_line1": "1 34413U 93036RE  25342.91359373  .00005672  00000+0  21508-2 0  9999",
        "tle_line2": "2 34413  74.0318 271.8267 0090854 349.0092  75.3617 14.29048679870763"
      },
      "geometry": {
        "type": "Point",
        "coordinates": [
          -89.71425628349456,
          -2.799714299450906
        ]
      }
    }
  ]
}